OBJECT_NAME,OBJECT_ID,EPOCH,MEAN_MOTION,ECCENTRICITY,INCLINATION,RA_OF_ASC_NODE,ARG_OF_PERICENTER,MEAN_ANOMALY,EPHEMERIS_TYPE,CLASSIFICATION_TYPE,NORAD_CAT_ID,ELEMENT_SET_NO,REV_AT_EPOCH,BSTAR,MEAN_MOTION_DOT,MEAN_MOTION_DDOT
ECHOSTAR 25,2026-045A,2026-06-22T07:53:56.711904,1.00271873,.00017967,0.0173,6.6213,80.7356,191.6321,0,U,68126,999,104,0,-.55E-6,0
TJS-24,2026-116A,2026-06-22T21:22:46.888608,1.00271814,.00004308,0.0356,125.1406,303.8464,253.0640,0,U,69235,999,28,0,-.228E-5,0
