ECHOSTAR 25             
1 68126U 26045A   26173.32912861 -.00000055  00000+0  00000+0 0  9990
2 68126   0.0173   6.6213 0001796  80.7356 191.6321  1.00271873  1043
TJS-24                  
1 69235U 26116A   26173.89082047 -.00000228  00000+0  00000+0 0  9999
2 69235   0.0356 125.1406 0000430 303.8464 253.0640  1.00271814   289
